STARLINK-2329
1 17873C 21021P   21326.18802463  .00004184  00000-0  28035-3 0  3263
2 17873  53.0510 102.8937 0001372  69.3138 345.6730 15.06391506    13
